HXMT (HUIYAN)           
1 42758U 17034A   26062.45847007  .00006583  00000+0  33103-3 0  9996
2 42758  43.0149  51.3128 0032245 197.7187 162.2538 15.17363580481598
SAOCOM 1A               
1 43641U 18076A   26062.48203356  .00000881  00000+0  11721-3 0  9998
2 43641  97.8883 250.7420 0001276  85.1433 274.9926 14.82161935400444
H-2A R/B                
1 43682U 18084L   26062.50001470  .00023470  00000+0  56364-3 0  9999
2 43682  98.8736 278.5669 0025827  46.2220 314.1153 15.41025493404829
SAOCOM 1B               
1 46265U 20059A   26062.51325729  .00000057  00000+0  13746-4 0  9995
2 46265  97.8882 249.8707 0001434  81.4441 278.6935 14.82163485297839
CSS (TIANHE)            
1 48274U 21035A   26061.80363536  .00017409  00000+0  21017-3 0  9999
2 48274  41.4651 250.0496 0006616 230.1207 129.9050 15.60315912276530
COSMOS 2550             
1 48865U 21056A   26062.51823236 -.00000190  00000+0  58363-7 0  9993
2 48865  67.1426  59.5994 0008367 269.1086  90.9110 15.33843242262517
CZ-2C R/B               
1 52794U 22058K   26062.21063122  .00036042  00000+0  53678-3 0  9993
2 52794  50.1905 351.6043 0042180 173.2115 186.9436 15.53679339209128
CZ-2C R/B               
1 54039U 22132E   26062.47604860  .00048909  00000+0  57096-3 0  9991
2 54039  97.2955  65.6069 0020777 110.9864 249.3619 15.61214914189404
GSLV R/B                
1 54149U 22138AN  26062.36942647  .00004943  00000+0  42834-3 0  9999
2 54149  87.3885 168.4771 0022064 168.6527 191.5207 14.96718830182987
XRISM                   
1 57800U 23137A   26062.10273933  .00007313  00000+0  41646-3 0  9997
2 57800  31.0033 326.2655 0008204 332.0919  27.9278 15.11407310136796
ACS3                    
1 59588U 24077B   26062.44893934  .00025285  00000+0  20475-1 0  9995
2 59588  97.2114   4.9634 0055194  93.4319 267.3160 13.89285723 93331
SZ-21 MODULE            
1 66515U 25246C   26062.51439913  .00040507  00000+0  35642-3 0  9991
2 66515  41.4734 241.3606 0001453 287.8659  72.2024 15.67986981 17104
